{
  "type": "FeatureCollection",
  "metadata": {
    "description": "DUMMY — ranh giới hành chính TP. Hồ Chí Minh (xấp xỉ, chỉ dùng để phát triển)",
    "note": "Thay bằng file GeoJSON chính xác khi có dữ liệu chính thức",
    "generated": "2026-06-05",
    "levels": { "district": "Quận / Huyện", "ward": "Phường / Xã" }
  },
  "features": [

    {
      "type": "Feature",
      "properties": { "name": "Quận 1", "level": "district", "admin_level": 6, "parent": "TP. Hồ Chí Minh", "code": "760" },
      "geometry": { "type": "Polygon", "coordinates": [[[106.6893,10.7682],[106.6942,10.7676],[106.6988,10.7681],[106.7035,10.7677],[106.7062,10.7682],[106.7070,10.7728],[106.7065,10.7778],[106.7069,10.7835],[106.7062,10.7887],[106.7008,10.7894],[106.6955,10.7889],[106.6908,10.7893],[106.6893,10.7887],[106.6885,10.7838],[106.6889,10.7782],[106.6886,10.7727],[106.6893,10.7682]]] }
    },
    {
      "type": "Feature",
      "properties": { "name": "Phường Bến Nghé", "level": "ward", "admin_level": 8, "parent": "Quận 1", "code": "26734" },
      "geometry": { "type": "Polygon", "coordinates": [[[106.6985,10.7682],[106.7022,10.7678],[106.7062,10.7682],[106.7070,10.7710],[106.7065,10.7736],[106.7063,10.7750],[106.7030,10.7756],[106.6998,10.7752],[106.6985,10.7750],[106.6980,10.7725],[106.6983,10.7703],[106.6985,10.7682]]] }
    },
    {
      "type": "Feature",
      "properties": { "name": "Phường Bến Thành", "level": "ward", "admin_level": 8, "parent": "Quận 1", "code": "26737" },
      "geometry": { "type": "Polygon", "coordinates": [[[106.6893,10.7730],[106.6928,10.7726],[106.6960,10.7731],[106.6985,10.7730],[106.6988,10.7754],[106.6983,10.7780],[106.6985,10.7800],[106.6952,10.7805],[106.6920,10.7802],[106.6893,10.7800],[106.6888,10.7772],[106.6891,10.7748],[106.6893,10.7730]]] }
    },
    {
      "type": "Feature",
      "properties": { "name": "Phường Cầu Kho", "level": "ward", "admin_level": 8, "parent": "Quận 1", "code": "26740" },
      "geometry": { "type": "Polygon", "coordinates": [[[106.6893,10.7682],[106.6928,10.7678],[106.6960,10.7681],[106.6985,10.7682],[106.6983,10.7705],[106.6985,10.7730],[106.6960,10.7731],[106.6928,10.7726],[106.6893,10.7730],[106.6888,10.7710],[106.6891,10.7695],[106.6893,10.7682]]] }
    },
    {
      "type": "Feature",
      "properties": { "name": "Phường Nguyễn Thái Bình", "level": "ward", "admin_level": 8, "parent": "Quận 1", "code": "26746" },
      "geometry": { "type": "Polygon", "coordinates": [[[106.6893,10.7800],[106.6920,10.7802],[106.6952,10.7805],[106.6970,10.7800],[106.6968,10.7822],[106.6972,10.7845],[106.6970,10.7850],[106.6940,10.7854],[106.6912,10.7851],[106.6893,10.7850],[106.6888,10.7828],[106.6891,10.7812],[106.6893,10.7800]]] }
    },
    {
      "type": "Feature",
      "properties": { "name": "Phường Đa Kao", "level": "ward", "admin_level": 8, "parent": "Quận 1", "code": "26743" },
      "geometry": { "type": "Polygon", "coordinates": [[[106.6970,10.7800],[106.6998,10.7803],[106.7025,10.7798],[106.7062,10.7800],[106.7069,10.7835],[106.7065,10.7865],[106.7062,10.7887],[106.7028,10.7893],[106.6995,10.7890],[106.6970,10.7887],[106.6968,10.7855],[106.6972,10.7826],[106.6970,10.7800]]] }
    },
    {
      "type": "Feature",
      "properties": { "name": "Phường Tân Định", "level": "ward", "admin_level": 8, "parent": "Quận 1", "code": "26749" },
      "geometry": { "type": "Polygon", "coordinates": [[[106.6893,10.7850],[106.6912,10.7851],[106.6940,10.7854],[106.6970,10.7850],[106.6968,10.7865],[106.6972,10.7880],[106.6970,10.7887],[106.6938,10.7892],[106.6912,10.7890],[106.6893,10.7887],[106.6888,10.7872],[106.6891,10.7858],[106.6893,10.7850]]] }
    },

    {
      "type": "Feature",
      "properties": { "name": "Quận 3", "level": "district", "admin_level": 6, "parent": "TP. Hồ Chí Minh", "code": "770" },
      "geometry": { "type": "Polygon", "coordinates": [[[106.6640,10.7682],[106.6695,10.7678],[106.6745,10.7683],[106.6800,10.7679],[106.6850,10.7682],[106.6893,10.7682],[106.6890,10.7750],[106.6893,10.7810],[106.6890,10.7870],[106.6893,10.7980],[106.6840,10.7985],[106.6780,10.7982],[106.6720,10.7978],[106.6660,10.7983],[106.6640,10.7980],[106.6635,10.7908],[106.6638,10.7840],[106.6634,10.7762],[106.6640,10.7682]]] }
    },
    {
      "type": "Feature",
      "properties": { "name": "Phường Võ Thị Sáu", "level": "ward", "admin_level": 8, "parent": "Quận 3", "code": "27013" },
      "geometry": { "type": "Polygon", "coordinates": [[[106.6760,10.7770],[106.6800,10.7766],[106.6840,10.7770],[106.6893,10.7770],[106.6890,10.7810],[106.6893,10.7850],[106.6862,10.7857],[106.6828,10.7853],[106.6793,10.7857],[106.6760,10.7855],[106.6756,10.7815],[106.6759,10.7790],[106.6760,10.7770]]] }
    },
    {
      "type": "Feature",
      "properties": { "name": "Phường 1", "level": "ward", "admin_level": 8, "parent": "Quận 3", "code": "27016" },
      "geometry": { "type": "Polygon", "coordinates": [[[106.6760,10.7887],[106.6793,10.7884],[106.6828,10.7888],[106.6862,10.7885],[106.6893,10.7887],[106.6890,10.7930],[106.6893,10.7980],[106.6855,10.7984],[106.6818,10.7980],[106.6782,10.7983],[106.6760,10.7980],[106.6756,10.7935],[106.6758,10.7910],[106.6760,10.7887]]] }
    },
    {
      "type": "Feature",
      "properties": { "name": "Phường 9", "level": "ward", "admin_level": 8, "parent": "Quận 3", "code": "27019" },
      "geometry": { "type": "Polygon", "coordinates": [[[106.6640,10.7887],[106.6678,10.7883],[106.6715,10.7887],[106.6745,10.7884],[106.6760,10.7887],[106.6758,10.7910],[106.6756,10.7935],[106.6760,10.7980],[106.6722,10.7984],[106.6688,10.7980],[106.6650,10.7983],[106.6640,10.7980],[106.6634,10.7930],[106.6637,10.7908],[106.6640,10.7887]]] }
    },
    {
      "type": "Feature",
      "properties": { "name": "Phường 4", "level": "ward", "admin_level": 8, "parent": "Quận 3", "code": "27022" },
      "geometry": { "type": "Polygon", "coordinates": [[[106.6640,10.7682],[106.6680,10.7678],[106.6720,10.7682],[106.6760,10.7680],[106.6760,10.7770],[106.6740,10.7774],[106.6710,10.7770],[106.6680,10.7773],[106.6640,10.7770],[106.6635,10.7728],[106.6638,10.7702],[106.6640,10.7682]]] }
    },
    {
      "type": "Feature",
      "properties": { "name": "Phường 5", "level": "ward", "admin_level": 8, "parent": "Quận 3", "code": "27025" },
      "geometry": { "type": "Polygon", "coordinates": [[[106.6640,10.7770],[106.6680,10.7773],[106.6710,10.7770],[106.6740,10.7774],[106.6760,10.7770],[106.6759,10.7790],[106.6756,10.7815],[106.6760,10.7855],[106.6730,10.7858],[106.6700,10.7854],[106.6668,10.7857],[106.6640,10.7855],[106.6636,10.7815],[106.6638,10.7790],[106.6640,10.7770]]] }
    },

    {
      "type": "Feature",
      "properties": { "name": "Quận 4", "level": "district", "admin_level": 6, "parent": "TP. Hồ Chí Minh", "code": "773" },
      "geometry": { "type": "Polygon", "coordinates": [[[106.6970,10.7482],[106.7020,10.7477],[106.7070,10.7481],[106.7130,10.7478],[106.7200,10.7482],[106.7205,10.7535],[106.7200,10.7590],[106.7205,10.7640],[106.7200,10.7682],[106.7130,10.7688],[106.7060,10.7683],[106.6990,10.7686],[106.6970,10.7682],[106.6963,10.7630],[106.6967,10.7568],[106.6963,10.7520],[106.6970,10.7482]]] }
    },
    {
      "type": "Feature",
      "properties": { "name": "Phường 1", "level": "ward", "admin_level": 8, "parent": "Quận 4", "code": "27088" },
      "geometry": { "type": "Polygon", "coordinates": [[[106.7090,10.7580],[106.7130,10.7576],[106.7170,10.7580],[106.7200,10.7580],[106.7205,10.7625],[106.7200,10.7660],[106.7197,10.7682],[106.7155,10.7687],[106.7115,10.7683],[106.7090,10.7682],[106.7085,10.7638],[106.7088,10.7610],[106.7090,10.7580]]] }
    },
    {
      "type": "Feature",
      "properties": { "name": "Phường 6", "level": "ward", "admin_level": 8, "parent": "Quận 4", "code": "27091" },
      "geometry": { "type": "Polygon", "coordinates": [[[106.7090,10.7482],[106.7130,10.7478],[106.7165,10.7482],[106.7200,10.7482],[106.7205,10.7535],[106.7200,10.7560],[106.7197,10.7580],[106.7165,10.7577],[106.7130,10.7576],[106.7090,10.7580],[106.7085,10.7538],[106.7088,10.7510],[106.7090,10.7482]]] }
    },
    {
      "type": "Feature",
      "properties": { "name": "Phường 13", "level": "ward", "admin_level": 8, "parent": "Quận 4", "code": "27094" },
      "geometry": { "type": "Polygon", "coordinates": [[[106.6970,10.7482],[106.7020,10.7477],[106.7055,10.7481],[106.7090,10.7482],[106.7088,10.7510],[106.7085,10.7538],[106.7090,10.7580],[106.7068,10.7585],[106.7040,10.7581],[106.7010,10.7584],[106.6985,10.7581],[106.6970,10.7580],[106.6963,10.7538],[106.6966,10.7510],[106.6970,10.7482]]] }
    },

    {
      "type": "Feature",
      "properties": { "name": "Quận Bình Thạnh", "level": "district", "admin_level": 6, "parent": "TP. Hồ Chí Minh", "code": "765" },
      "geometry": { "type": "Polygon", "coordinates": [[[106.6893,10.7887],[106.6955,10.7882],[106.7010,10.7886],[106.7070,10.7882],[106.7130,10.7886],[106.7190,10.7882],[106.7250,10.7887],[106.7258,10.7960],[106.7252,10.8030],[106.7255,10.8100],[106.7250,10.8200],[106.7180,10.8206],[106.7110,10.8202],[106.7040,10.8205],[106.6970,10.8202],[106.6900,10.8205],[106.6893,10.8200],[106.6885,10.8125],[106.6889,10.8058],[106.6885,10.7975],[106.6893,10.7887]]] }
    },
    {
      "type": "Feature",
      "properties": { "name": "Phường 1", "level": "ward", "admin_level": 8, "parent": "Quận Bình Thạnh", "code": "26869" },
      "geometry": { "type": "Polygon", "coordinates": [[[106.7050,10.8050],[106.7100,10.8045],[106.7155,10.8050],[106.7205,10.8047],[106.7250,10.8050],[106.7255,10.8100],[106.7250,10.8155],[106.7252,10.8200],[106.7195,10.8205],[106.7140,10.8202],[106.7090,10.8205],[106.7050,10.8202],[106.7044,10.8150],[106.7047,10.8098],[106.7050,10.8050]]] }
    },
    {
      "type": "Feature",
      "properties": { "name": "Phường 13", "level": "ward", "admin_level": 8, "parent": "Quận Bình Thạnh", "code": "26872" },
      "geometry": { "type": "Polygon", "coordinates": [[[106.7050,10.7887],[106.7095,10.7882],[106.7145,10.7886],[106.7200,10.7882],[106.7250,10.7887],[106.7255,10.7940],[106.7252,10.7990],[106.7250,10.8050],[106.7205,10.8047],[106.7155,10.8050],[106.7100,10.8045],[106.7050,10.8050],[106.7044,10.7995],[106.7047,10.7940],[106.7050,10.7887]]] }
    },
    {
      "type": "Feature",
      "properties": { "name": "Phường 25", "level": "ward", "admin_level": 8, "parent": "Quận Bình Thạnh", "code": "26875" },
      "geometry": { "type": "Polygon", "coordinates": [[[106.6893,10.7887],[106.6940,10.7883],[106.6985,10.7887],[106.7020,10.7884],[106.7050,10.7887],[106.7047,10.7940],[106.7044,10.7995],[106.7050,10.8050],[106.7008,10.8053],[106.6970,10.8050],[106.6930,10.8053],[106.6893,10.8050],[106.6886,10.7990],[106.6889,10.7940],[106.6893,10.7887]]] }
    },
    {
      "type": "Feature",
      "properties": { "name": "Phường 26", "level": "ward", "admin_level": 8, "parent": "Quận Bình Thạnh", "code": "26878" },
      "geometry": { "type": "Polygon", "coordinates": [[[106.6893,10.8050],[106.6930,10.8053],[106.6970,10.8050],[106.7008,10.8053],[106.7050,10.8050],[106.7047,10.8098],[106.7044,10.8150],[106.7050,10.8202],[106.7008,10.8205],[106.6965,10.8202],[106.6925,10.8205],[106.6893,10.8200],[106.6885,10.8140],[106.6888,10.8092],[106.6893,10.8050]]] }
    },

    {
      "type": "Feature",
      "properties": { "name": "Quận Phú Nhuận", "level": "district", "admin_level": 6, "parent": "TP. Hồ Chí Minh", "code": "778" },
      "geometry": { "type": "Polygon", "coordinates": [[[106.6640,10.7887],[106.6688,10.7883],[106.6735,10.7887],[106.6782,10.7883],[106.6830,10.7887],[106.6893,10.7887],[106.6889,10.7940],[106.6893,10.8010],[106.6890,10.8060],[106.6893,10.8100],[106.6845,10.8105],[106.6798,10.8102],[106.6750,10.8105],[106.6698,10.8102],[106.6640,10.8100],[106.6633,10.8042],[106.6636,10.7975],[106.6633,10.7928],[106.6640,10.7887]]] }
    },
    {
      "type": "Feature",
      "properties": { "name": "Phường 1", "level": "ward", "admin_level": 8, "parent": "Quận Phú Nhuận", "code": "27208" },
      "geometry": { "type": "Polygon", "coordinates": [[[106.6760,10.7980],[106.6798,10.7976],[106.6838,10.7980],[106.6875,10.7977],[106.6893,10.7980],[106.6890,10.8020],[106.6893,10.8060],[106.6890,10.8100],[106.6850,10.8104],[106.6812,10.8101],[106.6772,10.8104],[106.6738,10.8101],[106.6760,10.8095],[106.6756,10.8038],[106.6759,10.8005],[106.6760,10.7980]]] }
    },
    {
      "type": "Feature",
      "properties": { "name": "Phường 7", "level": "ward", "admin_level": 8, "parent": "Quận Phú Nhuận", "code": "27211" },
      "geometry": { "type": "Polygon", "coordinates": [[[106.6760,10.7887],[106.6800,10.7883],[106.6840,10.7887],[106.6875,10.7884],[106.6893,10.7887],[106.6889,10.7930],[106.6893,10.7980],[106.6875,10.7977],[106.6838,10.7980],[106.6798,10.7976],[106.6760,10.7980],[106.6756,10.7935],[106.6758,10.7908],[106.6760,10.7887]]] }
    },
    {
      "type": "Feature",
      "properties": { "name": "Phường 13", "level": "ward", "admin_level": 8, "parent": "Quận Phú Nhuận", "code": "27214" },
      "geometry": { "type": "Polygon", "coordinates": [[[106.6640,10.7887],[106.6680,10.7883],[106.6720,10.7887],[106.6745,10.7884],[106.6760,10.7887],[106.6758,10.7908],[106.6756,10.7935],[106.6760,10.7980],[106.6740,10.7982],[106.6715,10.7978],[106.6690,10.7981],[106.6660,10.7978],[106.6640,10.7980],[106.6633,10.7928],[106.6636,10.7905],[106.6640,10.7887]]] }
    },

    {
      "type": "Feature",
      "properties": { "name": "Quận Tân Bình", "level": "district", "admin_level": 6, "parent": "TP. Hồ Chí Minh", "code": "764" },
      "geometry": { "type": "Polygon", "coordinates": [[[106.6350,10.7887],[106.6410,10.7882],[106.6468,10.7886],[106.6525,10.7882],[106.6582,10.7886],[106.6640,10.7887],[106.6636,10.7952],[106.6640,10.8020],[106.6637,10.8088],[106.6640,10.8200],[106.6575,10.8205],[106.6510,10.8202],[106.6445,10.8205],[106.6385,10.8202],[106.6350,10.8200],[106.6342,10.8125],[106.6345,10.8055],[106.6342,10.7972],[106.6350,10.7887]]] }
    },
    {
      "type": "Feature",
      "properties": { "name": "Phường 1", "level": "ward", "admin_level": 8, "parent": "Quận Tân Bình", "code": "27349" },
      "geometry": { "type": "Polygon", "coordinates": [[[106.6350,10.8050],[106.6402,10.8046],[106.6455,10.8050],[106.6510,10.8047],[106.6570,10.8050],[106.6640,10.8050],[106.6637,10.8110],[106.6640,10.8155],[106.6637,10.8200],[106.6575,10.8204],[106.6510,10.8202],[106.6445,10.8204],[106.6385,10.8202],[106.6350,10.8200],[106.6343,10.8148],[106.6346,10.8098],[106.6350,10.8050]]] }
    },
    {
      "type": "Feature",
      "properties": { "name": "Phường 4", "level": "ward", "admin_level": 8, "parent": "Quận Tân Bình", "code": "27352" },
      "geometry": { "type": "Polygon", "coordinates": [[[106.6350,10.7887],[106.6410,10.7882],[106.6468,10.7886],[106.6525,10.7882],[106.6582,10.7886],[106.6640,10.7887],[106.6636,10.7952],[106.6640,10.8010],[106.6637,10.8050],[106.6570,10.8050],[106.6510,10.8047],[106.6455,10.8050],[106.6402,10.8046],[106.6350,10.8050],[106.6343,10.7980],[106.6346,10.7930],[106.6350,10.7887]]] }
    },

    {
      "type": "Feature",
      "properties": { "name": "Quận 7", "level": "district", "admin_level": 6, "parent": "TP. Hồ Chí Minh", "code": "775" },
      "geometry": { "type": "Polygon", "coordinates": [[[106.6970,10.7100],[106.7045,10.7095],[106.7120,10.7099],[106.7200,10.7096],[106.7285,10.7100],[106.7360,10.7097],[106.7400,10.7100],[106.7407,10.7180],[106.7403,10.7260],[106.7406,10.7370],[106.7400,10.7482],[106.7320,10.7487],[106.7240,10.7483],[106.7160,10.7487],[106.7080,10.7483],[106.6970,10.7482],[106.6963,10.7390],[106.6966,10.7290],[106.6963,10.7190],[106.6970,10.7100]]] }
    },
    {
      "type": "Feature",
      "properties": { "name": "Phường Tân Phong", "level": "ward", "admin_level": 8, "parent": "Quận 7", "code": "27157" },
      "geometry": { "type": "Polygon", "coordinates": [[[106.6970,10.7290],[106.7020,10.7286],[106.7080,10.7290],[106.7140,10.7287],[106.7200,10.7290],[106.7198,10.7355],[106.7200,10.7420],[106.7198,10.7455],[106.7200,10.7482],[106.7125,10.7487],[106.7050,10.7483],[106.6970,10.7482],[106.6963,10.7420],[106.6966,10.7355],[106.6970,10.7290]]] }
    },
    {
      "type": "Feature",
      "properties": { "name": "Phường Tân Hưng", "level": "ward", "admin_level": 8, "parent": "Quận 7", "code": "27160" },
      "geometry": { "type": "Polygon", "coordinates": [[[106.6970,10.7100],[106.7030,10.7096],[106.7090,10.7100],[106.7150,10.7097],[106.7200,10.7100],[106.7198,10.7158],[106.7200,10.7220],[106.7198,10.7260],[106.7200,10.7290],[106.7140,10.7287],[106.7080,10.7290],[106.7020,10.7286],[106.6970,10.7290],[106.6963,10.7228],[106.6966,10.7162],[106.6970,10.7100]]] }
    },
    {
      "type": "Feature",
      "properties": { "name": "Phường Phú Mỹ", "level": "ward", "admin_level": 8, "parent": "Quận 7", "code": "27163" },
      "geometry": { "type": "Polygon", "coordinates": [[[106.7200,10.7100],[106.7260,10.7096],[106.7330,10.7100],[106.7380,10.7097],[106.7400,10.7100],[106.7407,10.7180],[106.7403,10.7260],[106.7406,10.7370],[106.7400,10.7482],[106.7320,10.7487],[106.7240,10.7483],[106.7200,10.7482],[106.7198,10.7380],[106.7200,10.7280],[106.7198,10.7190],[106.7200,10.7100]]] }
    }
  ]
}
